ONEWEB-0410             
1 51622U 22012A   23309.92717124  .00000052  00000+0  10048-3 0  9995
2 51622  87.9192 195.5406 0002702  91.0961 269.0480 13.17649071 88038
ONEWEB-0411             
1 51623U 22012B   23309.84987642  .00000402  00000+0  11167-2 0  9992
2 51623  87.8921 225.7689 0001484  79.4474 280.6820 13.10369271 84309
ONEWEB-0415             
1 51624U 22012C   23309.77028028  .00000483  00000+0  13459-2 0  9994
2 51624  87.8924 225.8125 0001491  80.7944 279.3352 13.10375980 84291
ONEWEB-0416             
1 51625U 22012D   23309.85801215 -.00000085  00000+0 -27902-3 0  9990
2 51625  87.8922 225.7817 0001778  70.4593 289.6726 13.10374793 84347
ONEWEB-0422             
1 51626U 22012E   23309.93561416 -.00000012  00000+0 -64755-4 0  9994
2 51626  87.9189 195.5332 0001699  45.0722 315.0547 13.17649080 88142
ONEWEB-0423             
1 51627U 22012F   23309.92926787  .00000006  00000+0 -17136-4 0  9993
2 51627  87.9250 195.5140 0001681  72.8307 287.3009 13.17652213 88031
ONEWEB-0425             
1 51628U 22012G   23309.79137509 -.00000495  00000+0 -14543-2 0  9995
2 51628  87.8921 225.7859 0002246  72.2775 287.8597 13.10368927 84335
ONEWEB-0428             
1 51629U 22012H   23309.77190672  .00000482  00000+0  13453-2 0  9997
2 51629  87.8922 225.8016 0001512  62.0087 298.1193 13.10369356 84290
